[{"OBJECT_NAME":"FLOCK 4G-36","OBJECT_ID":"2025-009BU","EPOCH":"2026-03-09T16:58:27.533568","MEAN_MOTION":15.27209548,"ECCENTRICITY":0.00034736,"INCLINATION":97.4053,"RA_OF_ASC_NODE":151.0513,"ARG_OF_PERICENTER":324.2456,"MEAN_ANOMALY":35.855,"EPHEMERIS_TYPE":0,"CLASSIFICATION_TYPE":"U","NORAD_CAT_ID":62675,"ELEMENT_SET_NO":999,"REV_AT_EPOCH":6370,"BSTAR":0.00051121743,"MEAN_MOTION_DOT":0.00013573,"MEAN_MOTION_DDOT":0},{"OBJECT_NAME":"STARLINK-32762","OBJECT_ID":"2025-014P","EPOCH":"2026-03-09T14:01:59.262816","MEAN_MOTION":15.27587667,"ECCENTRICITY":0.0001379,"INCLINATION":43,"RA_OF_ASC_NODE":158.2437,"ARG_OF_PERICENTER":259.5202,"MEAN_ANOMALY":100.5494,"EPHEMERIS_TYPE":0,"CLASSIFICATION_TYPE":"U","NORAD_CAT_ID":62748,"ELEMENT_SET_NO":999,"REV_AT_EPOCH":6320,"BSTAR":0.0010081,"MEAN_MOTION_DOT":0.00027589,"MEAN_MOTION_DDOT":0}]
